{
  "norad_id": 68594,
  "name": "KUIPER-00294",
  "history": [
    {
      "epoch": "2026-04-09T12:10:14.657376Z",
      "apogee_km": 464.2243128854925,
      "perigee_km": 450.7062258376036,
      "latitude_deg": -1.558925632194326e-05,
      "longitude_deg": 128.803097495533,
      "height_km": 463.0578682152905,
      "semi_major_axis_km": 6835.602269361548,
      "eccentricity": 0.0009888,
      "inclination_deg": 51.8673,
      "raan_deg": 149.1185,
      "arg_perigee_deg": 135.7594,
      "mean_anomaly_deg": 224.4184,
      "mean_motion_rev_day": 15.36164003
    }
  ]
}